XRISM                   
1 57800U 23137A   23317.13326218  .00005325  00000+0  42696-3 0  9992
2 57800  31.0047 311.2882 0010528 219.7593 140.2270 14.98587756 10078
